NORAD_CAT_ID,OBJECT_NAME,OBJECT_TYPE,EPOCH,MEAN_MOTION,ECCENTRICITY,INCLINATION,RA_OF_ASC_NODE,ARG_OF_PERICENTER,MEAN_ANOMALY,BSTAR,MEAN_MOTION_DOT,MEAN_MOTION_DDOT,TLE_LINE0,TLE_LINE1,TLE_LINE2,SEMIMAJOR_AXIS,PERIOD,APOGEE,PERIGEE,DECAYED
51737.0,STARLINK-3509,PAYLOAD,2022-09-18 03:48:08,15.08826698,0.0001728,53.2166,253.773,48.0019,312.1121,-1.5986e-05,-5.42e-06,0.0,0 STARLINK-3509,1 51737U 22016Z   22261.15843068 -.00000542  00000-0 -15986-4 0  9998,2 51737  53.2166 253.7730 0001728  48.0019 312.1121 15.08826698 33117,6917.920999999999,95.438,540.981,538.591,0.0
51737.0,STARLINK-3509,PAYLOAD,2022-09-18 08:34:17,15.08832911,0.0001776999999999,53.2164,252.8804,47.9277,312.1866,4.0496e-05,3.56e-06,0.0,0 STARLINK-3509,1 51737U 22016Z   22261.35714649  .00000356  00000-0  40496-4 0  9997,2 51737  53.2164 252.8804 0001777  47.9277 312.1866 15.08832911 32081,6917.901999999999,95.438,540.996,538.538,0.0
51737.0,STARLINK-3509,PAYLOAD,2022-09-19 06:49:41,15.08834071,0.0001742,53.2175,248.7195,46.0888,314.0248,3.5992e-06,-2.31e-06,0.0,0 STARLINK-3509,1 51737U 22016Z   22262.28450837 -.00000231  00000-0  35992-5 0  9995,2 51737  53.2175 248.7195 0001742  46.0888 314.0248 15.08834071 32220,6917.899,95.438,540.969,538.558,0.0
51737.0,STARLINK-3509,PAYLOAD,2022-09-20 00:18:56,15.08836766,0.0001929,53.2175,245.4486,44.5811,315.5336,3.1165e-05,2.08e-06,0.0,0 STARLINK-3509,1 51737U 22016Z   22263.01315039  .00000208  00000-0  31165-4 0  9991,2 51737  53.2175 245.4486 0001929  44.5811 315.5336 15.08836766 33399,6917.89,95.438,541.09,538.4209999999998,0.0
51737.0,STARLINK-3509,PAYLOAD,2022-09-20 05:05:05,15.0884206,0.0001785,53.2171,244.5553,49.4021,310.7127,6.6361e-05,7.68e-06,0.0,0 STARLINK-3509,1 51737U 22016Z   22263.21186559  .00000768  00000-0  66361-4 0  9993,2 51737  53.2171 244.5553 0001785  49.4021 310.7127 15.08842060 32362,6917.874,95.437,540.974,538.504,0.0
51737.0,STARLINK-3509,PAYLOAD,2022-09-21 03:20:29,15.08811699,0.0001885999999999,53.2175,240.3913,54.8687,305.2482,0.00040087,6.093e-05,0.0,0 STARLINK-3509,1 51737U 22016Z   22264.13923056  .00006093  00000-0  40087-3 0  9999,2 51737  53.2175 240.3913 0001886  54.8687 305.2482 15.08811699 33560,6917.967,95.439,541.137,538.5269999999998,0.0
51737.0,STARLINK-3509,PAYLOAD,2022-09-21 08:06:38,15.08835906,0.0001773,53.2175,239.4993,52.3579,307.7574,8.3879e-05,1.047e-05,0.0,0 STARLINK-3509,1 51737U 22016Z   22264.33794663  .00001047  00000-0  83879-4 0  9992,2 51737  53.2175 239.4993 0001773  52.3579 307.7574 15.08835906 33594,6917.893,95.438,540.984,538.531,0.0
51737.0,STARLINK-3509,PAYLOAD,2022-09-21 16:03:33,15.08842405,0.0001819,53.2176,238.0131,50.7829,309.3325,8.8144e-05,1.115e-05,0.0,0 STARLINK-3509,1 51737U 22016Z   22264.66914167  .00001115  00000-0  88144-4 0  9997,2 51737  53.2176 238.0131 0001819  50.7829 309.3325 15.08842405 32587,6917.873000000001,95.437,540.996,538.48,0.0
51737.0,STARLINK-3509,PAYLOAD,2022-09-23 04:37:26,15.08830341,0.0001584,53.217,231.1739,50.2997,309.8134,-4.4524e-05,-9.96e-06,0.0,0 STARLINK-3509,1 51737U 22016Z   22266.19267289 -.00000996  00000-0 -44524-4 0  9995,2 51737  53.2170 231.1739 0001584  50.2997 309.8134 15.08830341 33871,6917.91,95.438,540.871,538.679,0.0
51737.0,STARLINK-3509,PAYLOAD,2022-09-23 12:34:22,15.08835872,0.0001625,53.2168,229.6876,47.6397,312.4732,-1.9809e-05,-6.03e-06,0.0,0 STARLINK-3509,1 51737U 22016Z   22266.52386998 -.00000603  00000-0 -19809-4 0  9994,2 51737  53.2168 229.6876 0001625  47.6397 312.4732 15.08835872 32868,6917.893,95.438,540.882,538.634,0.0
51737.0,STARLINK-3509,PAYLOAD,2022-09-23 18:55:54,15.08840047,0.0001684,53.217,228.4978,46.2249,313.8883,-3.7966e-06,-3.48e-06,0.0,0 STARLINK-3509,1 51737U 22016Z   22266.78882734 -.00000348  00000-0 -37966-5 0  9992,2 51737  53.2170 228.4978 0001684  46.2249 313.8883 15.08840047 33961,6917.88,95.438,540.91,538.58,0.0
51737.0,STARLINK-3509,PAYLOAD,2022-09-23 20:31:17,15.08840157,0.000168,53.217,228.2004,46.4069,313.7063,-1.2745e-06,-3.08e-06,0.0,0 STARLINK-3509,1 51737U 22016Z   22266.85506720 -.00000308  00000-0 -12745-5 0  9992,2 51737  53.2170 228.2004 0001680  46.4069 313.7063 15.08840157 32912,6917.88,95.438,540.9069999999998,538.5830000000002,0.0
51737.0,STARLINK-3509,PAYLOAD,2022-09-24 09:14:22,15.08841169,0.0001699,53.217,225.8215,47.738,312.3756,0.00016477,2.335e-05,0.0,0 STARLINK-3509,1 51737U 22016Z   22267.38498063  .00002335  00000-0  16477-3 0  9995,2 51737  53.2170 225.8215 0001699  47.7380 312.3756 15.08841169 32995,6917.877,95.437,540.9169999999998,538.566,0.0
51737.0,STARLINK-3509,PAYLOAD,2022-09-24 18:46:41,15.08835357,0.000172,53.217,224.0373,47.8889,312.2249,0.00010462,1.377e-05,0.0,0 STARLINK-3509,1 51737U 22016Z   22267.78242761  .00001377  00000-0  10462-3 0  9994,2 51737  53.2170 224.0373 0001720  47.8889 312.2249 15.08835357 33057,6917.895,95.438,540.9490000000002,538.57,0.0
51737.0,STARLINK-3509,PAYLOAD,2022-09-25 04:18:59,15.08845112,0.0001676999999999,53.2171,222.2528,48.5974,311.5162,0.00017849,2.554e-05,0.0,0 STARLINK-3509,1 51737U 22016Z   22268.17986051  .00002554  00000-0  17849-3 0  9999,2 51737  53.2171 222.2528 0001677  48.5974 311.5162 15.08845112 34174,6917.865,95.437,540.89,538.57,0.0
51737.0,STARLINK-3509,PAYLOAD,2022-09-25 09:05:09,15.08838335,0.000168,53.2169,221.3607,48.6012,311.5124,0.00011201,1.495e-05,0.0,0 STARLINK-3509,1 51737U 22016Z   22268.37858741  .00001495  00000-0  11201-3 0  9994,2 51737  53.2169 221.3607 0001680  48.6012 311.5124 15.08838335 33140,6917.885,95.438,540.913,538.5880000000002,0.0
51737.0,STARLINK-3509,PAYLOAD,2022-09-25 20:12:52,15.08839318,0.0001669,53.2171,219.2795,50.2177,309.8962,8.0931e-05,1e-05,0.0,0 STARLINK-3509,1 51737U 22016Z   22268.84226979  .00001000  00000-0  80931-4 0  9997,2 51737  53.2171 219.2795 0001669  50.2177 309.8962 15.08839318 33215,6917.882,95.438,540.9019999999998,538.5930000000002,0.0
51737.0,STARLINK-3509,PAYLOAD,2022-09-26 08:55:56,15.08867167,0.00016,53.2171,216.9006,46.5875,313.525,-0.00040276,-6.697e-05,0.0,0 STARLINK-3509,1 51737U 22016Z   22269.37218070 -.00006697  00000-0 -40276-3 0  9995,2 51737  53.2171 216.9006 0001600  46.5875 313.5250 15.08867167 34353,6917.797,95.436,540.769,538.556,0.0
51737.0,STARLINK-3509,PAYLOAD,2022-09-26 18:28:16,15.08828306,0.0001678,53.2171,215.1165,50.6665,309.4476,-3.7088e-05,-8.78e-06,0.0,0 STARLINK-3509,1 51737U 22016Z   22269.76964009 -.00000878  00000-0 -37088-4 0  9991,2 51737  53.2171 215.1165 0001678  50.6665 309.4476 15.08828306 34411,6917.916,95.438,540.942,538.62,0.0
51737.0,STARLINK-3509,PAYLOAD,2022-09-26 20:03:40,15.08828311,0.0001679,53.2171,214.8192,50.2459,309.868,-2.9895e-05,-7.64e-06,0.0,0 STARLINK-3509,1 51737U 22016Z   22269.83588038 -.00000764  00000-0 -29895-4 0  9994,2 51737  53.2171 214.8192 0001679  50.2459 309.8680 15.08828311 33365,6917.916,95.438,540.943,538.62,0.0
51737.0,STARLINK-3509,PAYLOAD,2022-09-27 04:00:35,15.08836673,0.0001676999999999,53.2172,213.3324,49.8519,310.262,-1.5635e-05,-5.37e-06,0.0,0 STARLINK-3509,1 51737U 22016Z   22270.16707631 -.00000537  00000-0 -15635-4 0  9999,2 51737  53.2172 213.3324 0001677  49.8519 310.2620 15.08836673 34479,6917.891,95.438,540.9159999999998,538.595,0.0
51737.0,STARLINK-3509,PAYLOAD,2022-09-27 08:46:44,15.0884184,0.0001694,53.2172,212.4403,49.7588,310.3552,-4.1093000000000004e-07,-2.95e-06,0.0,0 STARLINK-3509,1 51737U 22016Z   22270.36579283 -.00000295  00000-0 -41093-6 0  9991,2 51737  53.2172 212.4403 0001694  49.7588 310.3552 15.08841840 33444,6917.875,95.437,540.9119999999998,538.568,0.0
51737.0,STARLINK-3509,PAYLOAD,2022-09-27 19:54:25,15.08850982,0.0001725,53.2173,210.3587,50.2128,309.9015,0.0001843,2.647e-05,0.0,0 STARLINK-3509,1 51737U 22016Z   22270.82946313  .00002647  00000-0  18430-3 0  9991,2 51737  53.2173 210.3587 0001725  50.2128 309.9015 15.08850982 34577,6917.847,95.437,540.905,538.518,0.0
51737.0,STARLINK-3509,PAYLOAD,2022-09-28 07:02:08,15.08853181,0.0001710999999999,53.2163,208.2772,50.293,309.8213,0.00047336,7.256e-05,0.0,0 STARLINK-3509,1 51737U 22016Z   22271.29314936  .00007256  00000-0  47336-3 0  9991,2 51737  53.2163 208.2772 0001711  50.2930 309.8213 15.08853181 34645,6917.84,95.437,540.889,538.521,0.0
51737.0,STARLINK-3509,PAYLOAD,2022-09-28 16:34:27,15.08847283,0.0001783,53.2164,206.4931,52.9678,307.1478,0.00024527,3.618e-05,0.0,0 STARLINK-3509,1 51737U 22016Z   22271.69059031  .00003618  00000-0  24527-3 0  9992,2 51737  53.2164 206.4931 0001783  52.9678 307.1478 15.08847283 33649,6917.858,95.437,540.957,538.49,0.0
51737.0,STARLINK-3509,PAYLOAD,2022-09-29 10:03:41,15.08844973,0.0001810999999999,53.2166,203.2221,50.7327,309.3826,0.00038225,5.802e-05,0.0,0 STARLINK-3509,1 51737U 22016Z   22272.41922890  .00005802  00000-0  38225-3 0  9992,2 51737  53.2166 203.2221 0001811  50.7327 309.3826 15.08844973 33753,6917.865,95.437,540.9830000000002,538.477,0.0
51737.0,STARLINK-3509,PAYLOAD,2022-09-29 19:36:00,15.08851913,0.0001766999999999,53.2166,201.4383,50.852,309.2629,0.0006932,0.00010765,0.0,0 STARLINK-3509,1 51737U 22016Z   22272.81666727  .00010765  00000-0  69320-3 0  9994,2 51737  53.2166 201.4383 0001767  50.8520 309.2629 15.08851913 34874,6917.844,95.437,540.931,538.487,0.0
51737.0,STARLINK-3509,PAYLOAD,2022-09-30 09:54:28,15.08849727,0.0001769,53.2165,198.7619,51.6866,308.4285,0.00036065,5.458e-05,0.0,0 STARLINK-3509,1 51737U 22016Z   22273.41282527  .00005458  00000-0  36065-3 0  9996,2 51737  53.2165 198.7619 0001769  51.6866 308.4285 15.08849727 34966,6917.851,95.437,540.939,538.492,0.0
51737.0,STARLINK-3509,PAYLOAD,2022-10-01 01:48:19,15.0884734,0.0001837,53.2168,195.7884,54.1079,306.0084,0.00019404,2.802e-05,0.0,0 STARLINK-3509,1 51737U 22016Z   22274.07522520  .00002802  00000-0  19404-3 0  9997,2 51737  53.2168 195.7884 0001837  54.1079 306.0084 15.08847340 35062,6917.858,95.437,540.994,538.452,0.0
